QIANFAN-49              
1 62250U 24232P   25338.69314794  .00000196  00000+0  28553-3 0  9993
2 62250  89.0035  42.0472 0013543 210.7357 149.3002 13.50976743 66750
QIANFAN-50              
1 62251U 24232Q   25338.64375863  .00000198  00000+0  28840-3 0  9994
2 62251  89.0040  42.0598 0015145 213.1527 146.8677 13.50978249 66777
QIANFAN-51              
1 62252U 24232R   25338.70138125  .00000201  00000+0  29241-3 0  9991
2 62252  89.0034  42.0485 0012522 215.5458 144.4860 13.50976480 66774
QIANFAN-52              
1 62253U 24232S   25338.65610910  .00000194  00000+0  28174-3 0  9998
2 62253  89.0030  41.9269 0014768 208.6526 151.3815 13.50974590 66858
QIANFAN-53              
1 62254U 24232T   25338.63553726  .00000177  00000+0  25638-3 0  9991
2 62254  89.0038  42.0329 0013618 209.2851 150.7539 13.50976909 66815
QIANFAN-54              
1 62255U 24232U   25338.67671751  .00000183  00000+0  26509-3 0  9990
2 62255  89.0029  41.7079 0000939 189.1972 170.9162 13.50977094 98329
QIANFAN-55              
1 62785U 25016A   25338.70287424  .00000167  00000+0  23986-3 0  9991
2 62785  88.9776 104.0384 0017313  17.1942 342.9792 13.50984614 46102
QIANFAN-56              
1 62786U 25016B   25338.71923351  .00000182  00000+0  26366-3 0  9991
2 62786  88.9749 103.8753 0016033  20.0171 340.1606 13.50975815 46157
